{
    "links": {
        "self": "http://www.neowsapp.com/rest/v1/neo/3595922?api_key=iIulBulltgU6a56xZRHN4H3l9WmuAYTsLGpBGhQ2"
    },
    "id": "3595922",
    "neo_reference_id": "3595922",
    "name": "(2012 BR1)",
    "designation": "2012 BR1",
    "nasa_jpl_url": "http://ssd.jpl.nasa.gov/sbdb.cgi?sstr=3595922",
    "absolute_magnitude_h": 26.5,
    "estimated_diameter": {
        "kilometers": {
            "estimated_diameter_min": 0.0133215567,
            "estimated_diameter_max": 0.0297879063
        },
        "meters": {
            "estimated_diameter_min": 13.3215566698,
            "estimated_diameter_max": 29.7879062798
        },
        "miles": {
            "estimated_diameter_min": 0.008277629,
            "estimated_diameter_max": 0.0185093411
        },
        "feet": {
            "estimated_diameter_min": 43.7058959846,
            "estimated_diameter_max": 97.7293544391
        }
    },
    "is_potentially_hazardous_asteroid": false,
    "close_approach_data": [
        {
            "close_approach_date": "2012-01-11",
            "close_approach_date_full": "2012-Jan-11 23:56",
            "epoch_date_close_approach": 1326326160000,
            "relative_velocity": {
                "kilometers_per_second": "11.8101916008",
                "kilometers_per_hour": "42516.6897629621",
                "miles_per_hour": "26418.2175918805"
            },
            "miss_distance": {
                "astronomical": "0.0595051485",
                "lunar": "23.1475027665",
                "kilometers": "8901843.469633695",
                "miles": "5531349.039967191"
            },
            "orbiting_body": "Earth"
        }
    ],
    "orbital_data": {
        "orbit_id": "4",
        "orbit_determination_date": "2017-04-06 08:51:26",
        "first_observation_date": "2012-01-18",
        "last_observation_date": "2012-01-19",
        "data_arc_in_days": 1,
        "observations_used": 12,
        "orbit_uncertainty": "9",
        "minimum_orbit_intersection": ".056275",
        "jupiter_tisserand_invariant": "5.700",
        "epoch_osculation": "2455945.5",
        "eccentricity": ".2637155123373467",
        "semi_major_axis": "1.06851342230644",
        "inclination": "18.16352745374884",
        "ascending_node_longitude": "297.739462142651",
        "orbital_period": "403.4301947326114",
        "perihelion_distance": ".7867298577035656",
        "perihelion_argument": "76.49773850482966",
        "aphelion_distance": "1.350296986909315",
        "perihelion_time": "2455863.301783278452",
        "mean_anomaly": "73.34938833562042",
        "mean_motion": ".8923476841851256",
        "equinox": "J2000",
        "orbit_class": {
            "orbit_class_type": "APO",
            "orbit_class_description": "Near-Earth asteroid orbits which cross the Earth’s orbit similar to that of 1862 Apollo",
            "orbit_class_range": "a (semi-major axis) > 1.0 AU; q (perihelion) < 1.017 AU"
        }
    },
    "is_sentry_object": false
}